ONEWEB-0053             
1 45157U 20008AC  24112.26017019 -.00000316  00000+0 -94148-3 0  9998
2 45157  87.8994 192.6827 0002049  97.0738 263.0623 13.10374280204853
ONEWEB-0054             
1 45158U 20008AD  24112.60051328  .00000593  00000+0  16622-2 0  9993
2 45158  87.8989 192.5980 0002130 103.5852 256.5513 13.10372276205015
ONEWEB-0056             
1 45159U 20008AE  24112.58222776  .00000310  00000+0  85115-3 0  9999
2 45159  87.8993 192.5975 0001945  96.7490 263.3859 13.10375258205167
ONEWEB-0057             
1 45160U 20008AF  24112.58886167  .00000652  00000+0  18328-2 0  9991
2 45160  87.8996 192.5954 0001928 102.8534 257.2809 13.10374974205338
ONEWEB-0062             
1 45163U 20008AJ  24112.59885153  .00000648  00000+0  18203-2 0  9996
2 45163  87.8990 192.5942 0002127 102.9036 257.2329 13.10372622205179
